[{"OBJECT_NAME":"OSCAR 31","OBJECT_ID":"1988-074B","EPOCH":"2026-03-28T09:15:01.435392","MEAN_MOTION":13.42600833,"ECCENTRICITY":0.00927283,"INCLINATION":90.046,"RA_OF_ASC_NODE":20.9874,"ARG_OF_PERICENTER":299.9524,"MEAN_ANOMALY":175.7159,"EPHEMERIS_TYPE":0,"CLASSIFICATION_TYPE":"U","NORAD_CAT_ID":19420,"ELEMENT_SET_NO":999,"REV_AT_EPOCH":84068,"BSTAR":0.00010591148,"MEAN_MOTION_DOT":7.0e-7,"MEAN_MOTION_DDOT":0}]
