OSCAR 31                
1 19420U 88074B   26087.38543328  .00000070  00000+0  10591-3 0  9997
2 19420  90.0460  20.9874 0092728 299.9524 175.7159 13.42600833840686
